KUIPER-00133            
1 65764U 25217C   25340.00003472 -.00027325  00000+0 -35724-2 0  9998
2 65764  51.9027 107.3787 0011259  10.7267 127.7113 14.79851597  5102
KUIPER-00139            
1 65765U 25217D   25340.00003472 -.00023456  00000+0 -17744-2 0  9992
2 65765  51.8852 102.7721 0007647 357.1444 233.7184 15.01565094  5629
KUIPER-00142            
1 65766U 25217E   25340.00003472 -.00037655  00000+0 -12394-2 0  9995
2 65766  51.8716  97.0522 0002936  11.7105 119.2480 15.30838332  3778
KUIPER-00145            
1 65767U 25217F   25340.00003472 -.01128759  00000+0 -52696-1 0  9991
2 65767  51.8804  97.8941 0006689 317.5178  86.3325 15.22018891  5052
KUIPER-00147            
1 65768U 25217G   25340.00003472 -.00005268  00000+0 -27846-3 0  9991
2 65768  51.8786  99.2096 0009982 352.3750  99.3698 15.12880372  4912
KUIPER-00148            
1 65769U 25217H   25340.00003472 -.00017056  00000+0 -78507-3 0  9990
2 65769  51.8705  99.1629 0008181  15.8576 154.5250 15.19228036  3447
KUIPER-00150            
1 65770U 25217J   25340.00003472 -.00075429  00000+0 -87397-2 0  9996
2 65770  51.8961 104.9490 0007683 352.8787 101.6227 14.85388327  5427
KUIPER-00151            
1 65771U 25217K   25340.00003472 -.00927065  00000+0 -59019-1 0  9998
2 65771  51.8808  99.7941 0002362 345.2043 266.4569 15.11174658  5801
